NORAD_CAT_ID,OBJECT_NAME,OBJECT_TYPE,EPOCH,MEAN_MOTION,ECCENTRICITY,INCLINATION,RA_OF_ASC_NODE,ARG_OF_PERICENTER,MEAN_ANOMALY,BSTAR,MEAN_MOTION_DOT,MEAN_MOTION_DDOT,TLE_LINE0,TLE_LINE1,TLE_LINE2,SEMIMAJOR_AXIS,PERIOD,APOGEE,PERIGEE,DECAYED
53405.0,STARLINK-4510,PAYLOAD,2022-09-06 22:00:00,15.49892056,0.000138,53.2202,111.9032,77.093,319.5907,-0.00022111,-0.00012983,0.0,0 STARLINK-4510,1 53405U 22097T   22249.91667824 -.00012983  00000-0 -22111-3 0  9994,2 53405  53.2202 111.9032 0001380  77.0930 319.5907 15.49892056  1305,6795.179,92.91,417.981,416.106,0.0
53405.0,STARLINK-4510,PAYLOAD,2022-09-07 14:00:01,15.49833417,0.0001118,53.2206,108.7156,85.8538,72.63600000000002,0.00066057,0.00037149,0.0,0 STARLINK-4510,1 53405U 22097T   22250.58334491  .00037149  00000-0  66057-3 0  9996,2 53405  53.2206 108.7156 0001118  85.8538  72.6360 15.49833417  4882,6795.35,92.913,417.975,416.455,0.0
53405.0,STARLINK-4510,PAYLOAD,2022-09-07 22:00:00,15.49843535,0.0001188,53.2195,107.1298,74.6669,144.6894,0.0004075,0.0002271,0.0,0 STARLINK-4510,1 53405U 22097T   22250.91667824  .00022710  00000-0  40750-3 0  9992,2 53405  53.2195 107.1298 0001188  74.6669 144.6894 15.49843535  1305,6795.32,92.913,417.99300000000005,416.378,0.0
53405.0,STARLINK-4510,PAYLOAD,2022-09-08 06:00:00,15.50090554,9.69e-05,53.2183,105.5412,85.8925,194.3065,-0.017346,-0.00912821,0.0,0 STARLINK-4510,1 53405U 22097T   22251.25001157 -.00912821  00000-0 -17346-1 0  9997,2 53405  53.2183 105.5412 0000969  85.8925 194.3065 15.50090554  4983,6794.598000000001,92.898,417.122,415.805,0.0
53405.0,STARLINK-4510,PAYLOAD,2022-09-08 14:00:01,15.494424300000002,0.0001093,53.2177,103.9532,82.9622,258.0071,-0.022016,-0.01111293,0.0,0 STARLINK-4510,1 53405U 22097T   22251.58334491 -.01111293  00000-0 -22016-1 0  9998,2 53405  53.2177 103.9532 0001093  82.9622 258.0071 15.49442430  1302,6796.493,92.937,419.101,417.615,0.0
53405.0,STARLINK-4510,PAYLOAD,2022-09-08 22:00:00,15.48643325,0.0001226,53.2177,102.3684,61.101000000000006,339.7558,-0.022791,-0.01117666,0.0,0 STARLINK-4510,1 53405U 22097T   22251.91667824 -.01117666  00000-0 -22791-1 0  9994,2 53405  53.2177 102.3684 0001226  61.1010 339.7558 15.48643325  1303,6798.831,92.985,421.529,419.862,0.0
53405.0,STARLINK-4510,PAYLOAD,2022-09-09 14:00:01,15.4703497,0.0001302,53.2179,99.1984,83.5784,74.1657,-0.023986,-0.01128518,0.0,0 STARLINK-4510,1 53405U 22097T   22252.58334491 -.01128518  00000-0 -23986-1 0  9994,2 53405  53.2179  99.1984 0001302  83.5784  74.1657 15.47034970  1301,6803.542,93.081,426.293,424.521,0.0
53405.0,STARLINK-4510,PAYLOAD,2022-09-09 20:00:01,15.46433392,0.0001252999999999,53.2175,98.014,74.7973,35.7831,-0.0245349999999999,-0.01130262,0.0,0 STARLINK-4510,1 53405U 22097T   22252.83334491 -.01130262  00000-0 -24535-1 0  9992,2 53405  53.2175  98.0140 0001253  74.7973  35.7831 15.46433392  5239,6805.307,93.117,428.024,426.319,0.0
53405.0,STARLINK-4510,PAYLOAD,2022-09-09 22:00:00,15.46231905,0.0001336,53.2176,97.6193,81.7212,133.0175,-0.024666,-0.01128557,0.0,0 STARLINK-4510,1 53405U 22097T   22252.91667824 -.01128557  00000-0 -24666-1 0  9999,2 53405  53.2176  97.6193 0001336  81.7212 133.0175 15.46231905  1302,6805.898,93.13,428.672,426.853,0.0
53405.0,STARLINK-4510,PAYLOAD,2022-09-10 14:00:01,15.44625511,0.0001127,53.2177,94.4608,87.2637,238.5727,-0.026025,-0.01126691,0.0,0 STARLINK-4510,1 53405U 22097T   22253.58334491 -.01126691  00000-0 -26025-1 0  9992,2 53405  53.2177  94.4608 0001127  87.2637 238.5727 15.44625511  5349,6810.616,93.226,433.24800000000016,431.713,0.0
53405.0,STARLINK-4510,PAYLOAD,2022-09-10 22:00:00,15.43824831,0.0001177999999999,53.2175,92.8875,66.3829,313.5529,-0.026862,-0.01131134,0.0,0 STARLINK-4510,1 53405U 22097T   22253.91667824 -.01131134  00000-0 -26862-1 0  9995,2 53405  53.2175  92.8875 0001178  66.3829 313.5529 15.43824831  1303,6812.97,93.275,435.638,434.033,0.0
53405.0,STARLINK-4510,PAYLOAD,2022-09-11 06:00:00,15.43060085,0.0001184,53.218,91.311,66.2648,6.7869,-0.028804,-0.01177361,0.0,0 STARLINK-4510,1 53405U 22097T   22254.25001157 -.01177361  00000-0 -28804-1 0  9994,2 53405  53.2180  91.3110 0001184  66.2648   6.7869 15.43060085  5451,6815.221,93.321,437.893,436.279,0.0
53405.0,STARLINK-4510,PAYLOAD,2022-09-11 14:00:01,15.42216364,0.0001296999999999,53.2176,89.7404,74.4822,50.7634,-0.0282259999999999,-0.0112599,0.0,0 STARLINK-4510,1 53405U 22097T   22254.58334491 -.01125990  00000-0 -28226-1 0  9999,2 53405  53.2176  89.7404 0001297  74.4822  50.7634 15.42216364  1304,6817.706999999999,93.372,440.456,438.687,0.0
53405.0,STARLINK-4510,PAYLOAD,2022-09-11 22:00:00,15.41413287,0.0001383,53.2176,88.1728,72.4329,104.0182,-0.028986,-0.01125565,0.0,0 STARLINK-4510,1 53405U 22097T   22254.91667824 -.01125565  00000-0 -28986-1 0  9996,2 53405  53.2176  88.1728 0001383  72.4329 104.0182 15.41413287  1305,6820.074000000001,93.421,442.883,440.996,0.0
53405.0,STARLINK-4510,PAYLOAD,2022-09-12 06:00:00,15.40618436,0.0001205999999999,53.2177,86.6027,78.2112,148.4802,-0.030136,-0.01138299,0.0,0 STARLINK-4510,1 53405U 22097T   22255.25001157 -.01138299  00000-0 -30136-1 0  9993,2 53405  53.2177  86.6027 0001206  78.2112 148.4802 15.40618436  5609,6822.42,93.469,445.108,443.462,0.0
53405.0,STARLINK-4510,PAYLOAD,2022-09-12 14:00:01,15.39808297,0.0001252999999999,53.2175,85.0373,85.0954,190.875,-0.0305959999999999,-0.01126082,0.0,0 STARLINK-4510,1 53405U 22097T   22255.58334491 -.01126082  00000-0 -30596-1 0  9996,2 53405  53.2175  85.0373 0001253  85.0954 190.8750 15.39808297  1306,6824.813,93.518,447.533,445.823,0.0
53405.0,STARLINK-4510,PAYLOAD,2022-09-12 22:00:00,15.39039656,0.0001032999999999,53.2182,83.4734,83.7602,240.4998,-0.032544,-0.01164025,0.0,0 STARLINK-4510,1 53405U 22097T   22255.91667824 -.01164025  00000-0 -32544-1 0  9996,2 53405  53.2182  83.4734 0001033  83.7602 240.4998 15.39039656  1309,6827.085,93.565,449.655,448.245,0.0
53405.0,STARLINK-4510,PAYLOAD,2022-09-13 06:00:00,15.38203022,0.0001064,53.2175,81.9118,89.5332,282.0968,-0.032318,-0.01127892,0.0,0 STARLINK-4510,1 53405U 22097T   22256.25001157 -.01127892  00000-0 -32318-1 0  9995,2 53405  53.2175  81.9118 0001064  89.5332 282.0968 15.38203022  5760,6829.56,93.616,452.152,450.698,0.0
53405.0,STARLINK-4510,PAYLOAD,2022-09-13 14:00:01,15.37399444,0.0001144,53.2176,80.3516,86.6141,331.3985,-0.033116,-0.01125943,0.0,0 STARLINK-4510,1 53405U 22097T   22256.58334491 -.01125943  00000-0 -33116-1 0  9993,2 53405  53.2176  80.3516 0001144  86.6141 331.3985 15.37399444  1307,6831.94,93.665,454.586,453.023,0.0
53405.0,STARLINK-4510,PAYLOAD,2022-09-13 22:00:00,15.36594599,0.0001324,53.2176,78.795,64.3177,39.1127,-0.0339029999999999,-0.01123191,0.0,0 STARLINK-4510,1 53405U 22097T   22256.91667824 -.01123191  00000-0 -33903-1 0  9996,2 53405  53.2176  78.7950 0001324  64.3177  39.1127 15.36594599  1300,6834.325,93.714,457.095,455.285,0.0
53405.0,STARLINK-4510,PAYLOAD,2022-09-14 06:00:00,15.35792685,0.000134,53.2176,77.2371,69.9449,77.9389,-0.034832,-0.01124289,0.0,0 STARLINK-4510,1 53405U 22097T   22257.25001157 -.01124289  00000-0 -34832-1 0  9996,2 53405  53.2176  77.2371 0001340  69.9449  77.9389 15.35792685  5918,6836.704000000002,93.763,459.485,457.653,0.0
53405.0,STARLINK-4510,PAYLOAD,2022-09-14 14:00:01,15.3504327,0.0001386999999999,53.2183,75.6805,73.4925,117.8518,-0.0380649999999999,-0.01192583,0.0,0 STARLINK-4510,1 53405U 22097T   22257.58334491 -.01192583  00000-0 -38065-1 0  9996,2 53405  53.2183  75.6805 0001387  73.4925 117.8518 15.35043270  1306,6838.929,93.808,461.74300000000005,459.845,0.0
53405.0,STARLINK-4510,PAYLOAD,2022-09-14 22:00:00,15.34214731,0.0001443,53.2183,74.1301,66.229,167.6503,-0.037846,-0.01157969,0.0,0 STARLINK-4510,1 53405U 22097T   22257.91667824 -.01157969  00000-0 -37846-1 0  9997,2 53405  53.2183  74.1301 0001443  66.2290 167.6503 15.34214731  1307,6841.391,93.859,464.24300000000005,462.269,0.0
53405.0,STARLINK-4510,PAYLOAD,2022-09-15 06:00:00,15.33388925,0.0001235,53.2179,72.5786,67.9245,207.5277,-0.037882,-0.01131382,0.0,0 STARLINK-4510,1 53405U 22097T   22258.25001157 -.01131382  00000-0 -37882-1 0  9997,2 53405  53.2179  72.5786 0001235  67.9245 207.5277 15.33388925  6064,6843.847,93.91,466.557,464.867,0.0
53405.0,STARLINK-4510,PAYLOAD,2022-09-15 14:00:01,15.32637363,0.000118,53.2184,71.0288,85.53200000000002,230.4834,-0.041079,-0.01191912,0.0,0 STARLINK-4510,1 53405U 22097T   22258.58334491 -.01191912  00000-0 -41079-1 0  9991,2 53405  53.2184  71.0288 0001180  85.5320 230.4834 15.32637363  1308,6846.084,93.956,468.757,467.141,0.0
53405.0,STARLINK-4510,PAYLOAD,2022-09-15 22:00:00,15.3177679,0.0001147,53.2176,69.4858,76.4475,279.2279,-0.039466,-0.01121018,0.0,0 STARLINK-4510,1 53405U 22097T   22258.91667824 -.01121018  00000-0 -39466-1 0  9994,2 53405  53.2176  69.4858 0001147  76.4475 279.2279 15.31776790  1307,6848.648,94.008,471.299,469.728,0.0
53405.0,STARLINK-4510,PAYLOAD,2022-09-16 08:00:01,15.30802038,0.0001409,53.2182,67.5513,56.2193,77.6239,-0.042291,-0.01161229,0.0,0 STARLINK-4510,1 53405U 22097T   22259.33334491 -.01161229  00000-0 -42291-1 0  9990,2 53405  53.2182  67.5513 0001409  56.2193  77.6239 15.30802038  6232,6851.555,94.068,474.385,472.455,0.0
53405.0,STARLINK-4510,PAYLOAD,2022-09-16 14:00:01,15.30219574,0.0001222,53.2183,66.3943,74.19,357.8243,-0.043954,-0.01199182,0.0,0 STARLINK-4510,1 53405U 22097T   22259.58334491 -.01199182  00000-0 -43954-1 0  9993,2 53405  53.2183  66.3943 0001222  74.1900 357.8243 15.30219574  1303,6853.294,94.104,475.996,474.321,0.0
53405.0,STARLINK-4510,PAYLOAD,2022-09-16 22:00:00,15.29365877,0.0001286999999999,53.2174,64.8568,71.9617,36.8122,-0.0424,-0.0111735,0.0,0 STARLINK-4510,1 53405U 22097T   22259.91667824 -.01117350  00000-0 -42400-1 0  9991,2 53405  53.2174  64.8568 0001287  71.9617  36.8122 15.29365877  1306,6855.844,94.157,478.591,476.826,0.0
